[{"OBJECT_NAME":"ETV-A1","OBJECT_ID":"2022-002CE","EPOCH":"2026-03-09T23:06:52.018848","MEAN_MOTION":15.38462314,"ECCENTRICITY":0.00048217,"INCLINATION":97.2987,"RA_OF_ASC_NODE":135.6607,"ARG_OF_PERICENTER":1.089,"MEAN_ANOMALY":359.0365,"EPHEMERIS_TYPE":0,"CLASSIFICATION_TYPE":"U","NORAD_CAT_ID":51060,"ELEMENT_SET_NO":999,"REV_AT_EPOCH":23057,"BSTAR":0.00036250156,"MEAN_MOTION_DOT":0.00013686,"MEAN_MOTION_DDOT":0},{"OBJECT_NAME":"LEMUR-2-NIMBUS2000","OBJECT_ID":"2024-022A","EPOCH":"2026-03-09T13:28:11.970624","MEAN_MOTION":15.36761015,"ECCENTRICITY":0.00106365,"INCLINATION":97.4231,"RA_OF_ASC_NODE":277.4737,"ARG_OF_PERICENTER":113.743,"MEAN_ANOMALY":246.4931,"EPHEMERIS_TYPE":0,"CLASSIFICATION_TYPE":"U","NORAD_CAT_ID":58899,"ELEMENT_SET_NO":999,"REV_AT_EPOCH":11695,"BSTAR":0.0005061356,"MEAN_MOTION_DOT":0.00018151,"MEAN_MOTION_DDOT":0}]
